[{"OBJECT_NAME":"STSAT-3","OBJECT_ID":"2013-066G","EPOCH":"2026-03-09T22:41:44.680992","MEAN_MOTION":15.02088505,"ECCENTRICITY":0.0011318,"INCLINATION":97.6065,"RA_OF_ASC_NODE":40.5626,"ARG_OF_PERICENTER":13.5672,"MEAN_ANOMALY":346.5855,"EPHEMERIS_TYPE":0,"CLASSIFICATION_TYPE":"U","NORAD_CAT_ID":39422,"ELEMENT_SET_NO":999,"REV_AT_EPOCH":66930,"BSTAR":0.00035941523,"MEAN_MOTION_DOT":4.668e-5,"MEAN_MOTION_DDOT":0},{"OBJECT_NAME":"CZ-2C DEB","OBJECT_ID":"2011-030F","EPOCH":"2026-03-09T18:15:45.395712","MEAN_MOTION":15.09717889,"ECCENTRICITY":0.00353547,"INCLINATION":98.459,"RA_OF_ASC_NODE":350.9929,"ARG_OF_PERICENTER":109.3287,"MEAN_ANOMALY":305.6279,"EPHEMERIS_TYPE":0,"CLASSIFICATION_TYPE":"U","NORAD_CAT_ID":37735,"ELEMENT_SET_NO":999,"REV_AT_EPOCH":78307,"BSTAR":0.0021378399,"MEAN_MOTION_DOT":0.00035046,"MEAN_MOTION_DDOT":0}]
